{
  "type": "FeatureCollection",
  "features": [
    {
      "type": "Feature",
      "properties": {
        "norad_id": 66502,
        "name": "STARLINK-35922",
        "group": "last-30-days",
        "lat": 15.593566110346222,
        "lon": 158.63829759879877,
        "alt_km": 413.1722128799929,
        "timestamp": "2025-12-09T23:33:22.607981+00:00",
        "meta_object_name": "STARLINK-35922",
        "meta_object_id": "2025-263T",
        "meta_epoch": "2025-12-09T14:00:01.999872",
        "meta_mean_motion": 15.50596929,
        "meta_eccentricity": 0.0001474,
        "meta_inclination": 43.0005,
        "meta_ra_of_asc_node": 143.5407,
        "meta_arg_of_pericenter": 264.27,
        "meta_mean_anomaly": 53.8415,
        "meta_ephemeris_type": 0,
        "meta_classification_type": "U",
        "meta_norad_cat_id": 66502,
        "meta_element_set_no": 999,
        "meta_rev_at_epoch": 512,
        "meta_bstar": -0.0015815486,
        "meta_mean_motion_dot": -0.00092099,
        "meta_mean_motion_ddot": 0,
        "tle_line1": "1 66502U 25263T   25343.58335648 -.00092099  00000+0 -15815-2 0  9998",
        "tle_line2": "2 66502  43.0005 143.5407 0001474 264.2700  53.8415 15.50596929  5129"
      },
      "geometry": {
        "type": "Point",
        "coordinates": [
          158.63829759879877,
          15.593566110346222
        ]
      }
    },
    {
      "type": "Feature",
      "properties": {
        "norad_id": 66503,
        "name": "STARLINK-35917",
        "group": "last-30-days",
        "lat": 18.067227400316202,
        "lon": 161.69369639083428,
        "alt_km": 412.6621846848175,
        "timestamp": "2025-12-09T23:33:22.607992+00:00",
        "meta_object_name": "STARLINK-35917",
        "meta_object_id": "2025-263U",
        "meta_epoch": "2025-12-09T14:00:01.999872",
        "meta_mean_motion": 15.50589047,
        "meta_eccentricity": 0.00014441,
        "meta_inclination": 43.0005,
        "meta_ra_of_asc_node": 143.5315,
        "meta_arg_of_pericenter": 273.2768,
        "meta_mean_anomaly": 48.6663,
        "meta_ephemeris_type": 0,
        "meta_classification_type": "U",
        "meta_norad_cat_id": 66503,
        "meta_element_set_no": 999,
        "meta_rev_at_epoch": 512,
        "meta_bstar": -0.001175575,
        "meta_mean_motion_dot": -0.00068729,
        "meta_mean_motion_ddot": 0,
        "tle_line1": "1 66503U 25263U   25343.58335648 -.00068729  00000+0 -11756-2 0  9992",
        "tle_line2": "2 66503  43.0005 143.5315 0001444 273.2768  48.6663 15.50589047  5129"
      },
      "geometry": {
        "type": "Point",
        "coordinates": [
          161.69369639083428,
          18.067227400316202
        ]
      }
    },
    {
      "type": "Feature",
      "properties": {
        "norad_id": 66504,
        "name": "STARLINK-35916",
        "group": "last-30-days",
        "lat": -18.325154932470582,
        "lon": -16.654653106288745,
        "alt_km": 445.41430779571056,
        "timestamp": "2025-12-09T23:33:22.608002+00:00",
        "meta_object_name": "STARLINK-35916",
        "meta_object_id": "2025-263V",
        "meta_epoch": "2025-12-09T14:00:01.999872",
        "meta_mean_motion": 15.4065991,
        "meta_eccentricity": 0.00015077,
        "meta_inclination": 43.0004,
        "meta_ra_of_asc_node": 144.8209,
        "meta_arg_of_pericenter": 265.9969,
        "meta_mean_anomaly": 250.4461,
        "meta_ephemeris_type": 0,
        "meta_classification_type": "U",
        "meta_norad_cat_id": 66504,
        "meta_element_set_no": 999,
        "meta_rev_at_epoch": 512,
        "meta_bstar": 0.00061392937,
        "meta_mean_motion_dot": 0.00025393,
        "meta_mean_motion_ddot": 0,
        "tle_line1": "1 66504U 25263V   25343.58335648  .00025393  00000+0  61393-3 0  9994",
        "tle_line2": "2 66504  43.0004 144.8209 0001507 265.9969 250.4461 15.40659910  5121"
      },
      "geometry": {
        "type": "Point",
        "coordinates": [
          -16.654653106288745,
          -18.325154932470582
        ]
      }
    },
    {
      "type": "Feature",
      "properties": {
        "norad_id": 66505,
        "name": "STARLINK-34766",
        "group": "last-30-days",
        "lat": 13.080727811822186,
        "lon": 155.65948445664256,
        "alt_km": 413.248131316579,
        "timestamp": "2025-12-09T23:33:22.608013+00:00",
        "meta_object_name": "STARLINK-34766",
        "meta_object_id": "2025-263W",
        "meta_epoch": "2025-12-09T14:00:01.999872",
        "meta_mean_motion": 15.50567242,
        "meta_eccentricity": 0.00015527,
        "meta_inclination": 43.0005,
        "meta_ra_of_asc_node": 143.5503,
        "meta_arg_of_pericenter": 273.5222,
        "meta_mean_anomaly": 40.7513,
        "meta_ephemeris_type": 0,
        "meta_classification_type": "U",
        "meta_norad_cat_id": 66505,
        "meta_element_set_no": 999,
        "meta_rev_at_epoch": 512,
        "meta_bstar": -0.00016363285,
        "meta_mean_motion_dot": -9.925e-05,
        "meta_mean_motion_ddot": 0,
        "tle_line1": "1 66505U 25263W   25343.58335648 -.00009925  00000+0 -16363-3 0  9997",
        "tle_line2": "2 66505  43.0005 143.5503 0001552 273.5222  40.7513 15.50567242  5128"
      },
      "geometry": {
        "type": "Point",
        "coordinates": [
          155.65948445664256,
          13.080727811822186
        ]
      }
    },
    {
      "type": "Feature",
      "properties": {
        "norad_id": 66506,
        "name": "STARLINK-34765",
        "group": "last-30-days",
        "lat": 14.34116666146181,
        "lon": 157.14024318097935,
        "alt_km": 413.1379419721907,
        "timestamp": "2025-12-09T23:33:22.608024+00:00",
        "meta_object_name": "STARLINK-34765",
        "meta_object_id": "2025-263X",
        "meta_epoch": "2025-12-09T14:00:01.999872",
        "meta_mean_motion": 15.50582097,
        "meta_eccentricity": 0.00013914,
        "meta_inclination": 43.0005,
        "meta_ra_of_asc_node": 143.546,
        "meta_arg_of_pericenter": 272.9846,
        "meta_mean_anomaly": 43.2117,
        "meta_ephemeris_type": 0,
        "meta_classification_type": "U",
        "meta_norad_cat_id": 66506,
        "meta_element_set_no": 999,
        "meta_rev_at_epoch": 512,
        "meta_bstar": -0.00098957431,
        "meta_mean_motion_dot": -0.00057973,
        "meta_mean_motion_ddot": 0,
        "tle_line1": "1 66506U 25263X   25343.58335648 -.00057973  00000+0 -98957-3 0  9993",
        "tle_line2": "2 66506  43.0005 143.5460 0001391 272.9846  43.2117 15.50582097  5120"
      },
      "geometry": {
        "type": "Point",
        "coordinates": [
          157.14024318097935,
          14.34116666146181
        ]
      }
    },
    {
      "type": "Feature",
      "properties": {
        "norad_id": 66507,
        "name": "STARLINK-34767",
        "group": "last-30-days",
        "lat": 16.834160607963508,
        "lon": 160.15227486387755,
        "alt_km": 412.99539479184386,
        "timestamp": "2025-12-09T23:33:22.608035+00:00",
        "meta_object_name": "STARLINK-34767",
        "meta_object_id": "2025-263Y",
        "meta_epoch": "2025-12-09T14:00:01.999872",
        "meta_mean_motion": 15.5059581,
        "meta_eccentricity": 0.00013935,
        "meta_inclination": 43.0004,
        "meta_ra_of_asc_node": 143.5347,
        "meta_arg_of_pericenter": 262.3523,
        "meta_mean_anomaly": 57.6717,
        "meta_ephemeris_type": 0,
        "meta_classification_type": "U",
        "meta_norad_cat_id": 66507,
        "meta_element_set_no": 999,
        "meta_rev_at_epoch": 512,
        "meta_bstar": -0.0014430456,
        "meta_mean_motion_dot": -0.00084144,
        "meta_mean_motion_ddot": 0,
        "tle_line1": "1 66507U 25263Y   25343.58335648 -.00084144  00000+0 -14430-2 0  9997",
        "tle_line2": "2 66507  43.0004 143.5347 0001393 262.3523  57.6717 15.50595810  5123"
      },
      "geometry": {
        "type": "Point",
        "coordinates": [
          160.15227486387755,
          16.834160607963508
        ]
      }
    },
    {
      "type": "Feature",
      "properties": {
        "norad_id": 66508,
        "name": "STARLINK-35608",
        "group": "last-30-days",
        "lat": 20.49136428647719,
        "lon": 164.83538613695185,
        "alt_km": 412.2964087559103,
        "timestamp": "2025-12-09T23:33:22.608049+00:00",
        "meta_object_name": "STARLINK-35608",
        "meta_object_id": "2025-263Z",
        "meta_epoch": "2025-12-09T14:00:01.999872",
        "meta_mean_motion": 15.50583152,
        "meta_eccentricity": 0.00014118,
        "meta_inclination": 43.0004,
        "meta_ra_of_asc_node": 143.5216,
        "meta_arg_of_pericenter": 274.6849,
        "meta_mean_anomaly": 51.0944,
        "meta_ephemeris_type": 0,
        "meta_classification_type": "U",
        "meta_norad_cat_id": 66508,
        "meta_element_set_no": 999,
        "meta_rev_at_epoch": 512,
        "meta_bstar": -0.00096467903,
        "meta_mean_motion_dot": -0.00056536,
        "meta_mean_motion_ddot": 0,
        "tle_line1": "1 66508U 25263Z   25343.58335648 -.00056536  00000+0 -96468-3 0  9994",
        "tle_line2": "2 66508  43.0004 143.5216 0001411 274.6849  51.0944 15.50583152  5123"
      },
      "geometry": {
        "type": "Point",
        "coordinates": [
          164.83538613695185,
          20.49136428647719
        ]
      }
    }
  ]
}